NORAD_CAT_ID,OBJECT_NAME,OBJECT_TYPE,EPOCH,MEAN_MOTION,ECCENTRICITY,INCLINATION,RA_OF_ASC_NODE,ARG_OF_PERICENTER,MEAN_ANOMALY,BSTAR,MEAN_MOTION_DOT,MEAN_MOTION_DDOT,TLE_LINE0,TLE_LINE1,TLE_LINE2,SEMIMAJOR_AXIS,PERIOD,APOGEE,PERIGEE,DECAYED
52576.0,STARLINK-3932,PAYLOAD,2023-07-17 02:29:21,15.08849789,0.0001319,53.2164,138.2936,88.4868,271.6276,0.00024098,3.55e-05,0.0,0 STARLINK-3932,1 52576U 22051AS  23198.10372012  .00003550  00000-0  24098-3 0  9993,2 52576  53.2164 138.2936 0001319  88.4868 271.6276 15.08849789 65737,6917.85,95.437,540.628,538.803,0.0
52576.0,STARLINK-3932,PAYLOAD,2023-07-19 02:10:54,15.08865401,0.0001361,53.2169,129.3745,100.4916,259.623,0.00044748,6.846e-05,0.0,0 STARLINK-3932,1 52576U 22051AS  23200.09090822  .00006846  00000-0  44748-3 0  9996,2 52576  53.2169 129.3745 0001361 100.4916 259.6230 15.08865401 66036,6917.803,95.436,540.609,538.726,0.0
52576.0,STARLINK-3932,PAYLOAD,2023-07-19 19:40:09,15.08826765,0.0001136,53.2169,126.1012,104.9627,255.1491,9.6727e-05,1.251e-05,0.0,0 STARLINK-3932,1 52576U 22051AS  23200.81955640  .00001251  00000-0  96727-4 0  9994,2 52576  53.2169 126.1012 0001136 104.9627 255.1491 15.08826765 66148,6917.921,95.438,540.572,539.0,0.0
52576.0,STARLINK-3932,PAYLOAD,2023-07-21 05:03:16,15.08845287,9.75e-05,53.2165,119.8576,104.6149,255.4952,0.00061783,9.56e-05,0.0,0 STARLINK-3932,1 52576U 22051AS  23202.21060314  .00009560  00000-0  61783-3 0  9999,2 52576  53.2165 119.8576 0000975 104.6149 255.4952 15.08845287 66352,6917.864,95.437,540.404,539.055,0.0
52576.0,STARLINK-3932,PAYLOAD,2023-07-23 23:49:28,15.08835719,0.0001072,53.2162,107.3695,94.6063,265.5052,-3.9029e-05,-9.09e-06,0.0,0 STARLINK-3932,1 52576U 22051AS  23204.99268949 -.00000909  00000-0 -39029-4 0  9999,2 52576  53.2162 107.3695 0001072  94.6063 265.5052 15.08835719 66706,6917.893,95.438,540.5,539.017,0.0
52576.0,STARLINK-3932,PAYLOAD,2023-07-25 02:51:01,15.08850078,0.0001023,53.2158,102.3128,78.8807,281.2301,0.00023727,3.491e-05,0.0,0 STARLINK-3932,1 52576U 22051AS  23206.11876554  .00003491  00000-0  23727-3 0  9996,2 52576  53.2158 102.3128 0001023  78.8807 281.2301 15.08850078 66878,6917.85,95.437,540.422,539.007,0.0
52576.0,STARLINK-3932,PAYLOAD,2023-07-26 02:41:48,15.08843304,0.0002253,53.2192,97.855,100.0564,260.0683,0.00010499,1.383e-05,0.0,0 STARLINK-3932,1 52576U 22051AS  23207.11237101  .00001383  00000-0  10499-3 0  9996,2 52576  53.2192  97.8550 0002253 100.0564 260.0683 15.08843304 67027,6917.87,95.437,541.294,538.177,0.0
52576.0,STARLINK-3932,PAYLOAD,2023-07-27 00:57:11,15.08855265,0.0001227,53.2164,93.6883,83.4593,276.6538,0.00018875,2.719e-05,0.0,0 STARLINK-3932,1 52576U 22051AS  23208.03972068  .00002719  00000-0  18875-3 0  9996,2 52576  53.2164  93.6883 0001227  83.4593 276.6538 15.08855265 67239,6917.834,95.437,540.548,538.85,0.0
52576.0,STARLINK-3932,PAYLOAD,2023-07-27 08:54:08,15.08833757,0.0001304,53.2162,92.1996,94.9027,265.2114,-9.6219e-05,-1.819e-05,0.0,0 STARLINK-3932,1 52576U 22051AS  23208.37092947 -.00001819  00000-0 -96219-4 0  9993,2 52576  53.2162  92.1996 0001304  94.9027 265.2114 15.08833757 67282,6917.899,95.438,540.667,538.862,0.0
52576.0,STARLINK-3932,PAYLOAD,2023-07-27 21:37:14,15.08830428,0.0001291,53.2188,89.8243,96.9147,263.1992,-0.00015112,-2.691e-05,0.0,0 STARLINK-3932,1 52576U 22051AS  23208.90085655 -.00002691  00000-0 -15112-3 0  9991,2 52576  53.2188  89.8243 0001291  96.9147 263.1992 15.08830428 67292,6917.91,95.438,540.668,538.882,0.0
52576.0,STARLINK-3932,PAYLOAD,2023-07-28 02:23:23,15.08833088,0.0001365,53.2178,88.9322,105.8982,254.2161,-1.9069e-05,-5.91e-06,0.0,0 STARLINK-3932,1 52576U 22051AS  23209.09957912 -.00000591  00000-0 -19069-4 0  9999,2 52576  53.2178  88.9322 0001365 105.8982 254.2161 15.08833088 67326,6917.902,95.438,540.711,538.822,0.0
52576.0,STARLINK-3932,PAYLOAD,2023-07-28 18:17:14,15.08842405,0.0001317,53.2173,85.9598,107.9497,252.1639,-8.1702e-05,-1.588e-05,0.0,0 STARLINK-3932,1 52576U 22051AS  23209.76197188 -.00001588  00000-0 -81702-4 0  9994,2 52576  53.2173  85.9598 0001317 107.9497 252.1639 15.08842405 67492,6917.873,95.437,540.649,538.827,0.0
52576.0,STARLINK-3932,PAYLOAD,2023-07-30 02:04:56,15.0885253,0.0001192,53.2166,80.0117,100.2771,259.8356,0.00030185,4.521e-05,0.0,0 STARLINK-3932,1 52576U 22051AS  23211.08676839  .00004521  00000-0  30185-3 0  9993,2 52576  53.2166  80.0117 0001192 100.2771 259.8356 15.08852530 67691,6917.842,95.437,540.532,538.882,0.0
52576.0,STARLINK-3932,PAYLOAD,2023-07-30 17:58:48,15.08839736,0.0001281,53.2164,77.0377,100.3743,259.7394,-2.8021e-05,-7.34e-06,0.0,0 STARLINK-3932,1 52576U 22051AS  23211.74917338 -.00000734  00000-0 -28021-4 0  9999,2 52576  53.2164  77.0377 0001281 100.3743 259.7394 15.08839736 67797,6917.881,95.438,540.632,538.86,0.0
52576.0,STARLINK-3932,PAYLOAD,2023-07-31 22:35:45,15.08846093,0.0001047,53.2158,71.6829,94.0618,266.0494,0.00025375,3.754e-05,0.0,0 STARLINK-3932,1 52576U 22051AS  23212.94149514  .00003754  00000-0  25375-3 0  9996,2 52576  53.2158  71.6829 0001047  94.0618 266.0494 15.08846093 67978,6917.862,95.437,540.451,539.002,0.0
52576.0,STARLINK-3932,PAYLOAD,2023-08-01 19:15:46,15.08843493,0.0001077,53.216,67.8178,85.1665,274.945,0.00017113,2.437e-05,0.0,0 STARLINK-3932,1 52576U 22051AS  23213.80261635  .00002437  00000-0  17113-3 0  9999,2 52576  53.2160  67.8178 0001077  85.1665 274.9450 15.08843493 68108,6917.87,95.437,540.48,538.99,0.0
52576.0,STARLINK-3932,PAYLOAD,2023-08-02 17:31:10,15.08841316,0.0001127,53.2163,63.6549,81.4049,278.707,0.00011489,1.541e-05,0.0,0 STARLINK-3932,1 52576U 22051AS  23214.72997771  .00001541  00000-0  11489-3 0  9993,2 52576  53.2163  63.6549 0001127  81.4049 278.7070 15.08841316 68245,6917.876,95.437,540.521,538.962,0.0
52576.0,STARLINK-3932,PAYLOAD,2023-08-02 23:52:42,15.08851537,0.0001122,53.2164,62.4656,80.1828,279.9291,0.00019325,2.79e-05,0.0,0 STARLINK-3932,1 52576U 22051AS  23214.99493175  .00002790  00000-0  19325-3 0  9995,2 52576  53.2164  62.4656 0001122  80.1828 279.9291 15.08851537 68286,6917.845,95.437,540.486,538.934,0.0
52576.0,STARLINK-3932,PAYLOAD,2023-08-03 18:57:20,15.08839019,0.0001124,53.2164,58.8961,81.9216,278.1903,6.4074e-05,7.32e-06,0.0,0 STARLINK-3932,1 52576U 22051AS  23215.78981766  .00000732  00000-0  64074-4 0  9997,2 52576  53.2164  58.8961 0001124  81.9216 278.1903 15.08839019 68402,6917.883,95.438,540.526,538.971,0.0
52576.0,STARLINK-3932,PAYLOAD,2023-08-03 23:43:29,15.08847934,0.0001123,53.2171,58.0028,78.0215,282.0903,0.00019954,2.89e-05,0.0,0 STARLINK-3932,1 52576U 22051AS  23215.98853256  .00002890  00000-0  19954-3 0  9994,2 52576  53.2171  58.0028 0001123  78.0215 282.0903 15.08847934 68433,6917.856,95.437,540.498,538.944,0.0
52576.0,STARLINK-3932,PAYLOAD,2023-08-04 18:48:07,15.08839236,0.0001129,53.2167,54.4354,87.0088,273.1034,-2.2097e-05,-6.39e-06,0.0,0 STARLINK-3932,1 52576U 22051AS  23216.78341824 -.00000639  00000-0 -22097-4 0  9990,2 52576  53.2167  54.4354 0001129  87.0088 273.1034 15.08839236 68559,6917.883,95.438,540.529,538.967,0.0
52576.0,STARLINK-3932,PAYLOAD,2023-08-05 18:38:53,15.08848983,0.0001123,53.2172,49.9781,94.7561,265.3559,0.00013875,1.922e-05,0.0,0 STARLINK-3932,1 52576U 22051AS  23217.77701349  .00001922  00000-0  13875-3 0  9999,2 52576  53.2172  49.9781 0001123  94.7561 265.3559 15.08848983 68704,6917.853,95.437,540.495,538.941,0.0
52576.0,STARLINK-3932,PAYLOAD,2023-08-06 05:46:36,15.08837273,0.000113,53.2175,47.8943,92.2845,267.8277,-2.4937e-05,-6.85e-06,0.0,0 STARLINK-3932,1 52576U 22051AS  23218.24069830 -.00000685  00000-0 -24937-4 0  9993,2 52576  53.2175  47.8943 0001130  92.2845 267.8277 15.08837273 68771,6917.889,95.438,540.535,538.972,0.0
52576.0,STARLINK-3932,PAYLOAD,2023-08-06 18:29:42,15.08820934,0.0001155,53.2178,45.5174,98.353,261.7593,-0.00023231,-3.981e-05,0.0,0 STARLINK-3932,1 52576U 22051AS  23218.77062980 -.00003981  00000-0 -23231-3 0  9997,2 52576  53.2178  45.5174 0001155  98.3530 261.7593 15.08820934 68859,6917.939,95.439,540.603,539.005,0.0
52576.0,STARLINK-3932,PAYLOAD,2023-08-07 05:37:24,15.08829084,0.0001026,53.2172,43.4353,99.9314,260.1794,0.00010532,1.388e-05,0.0,0 STARLINK-3932,1 52576U 22051AS  23219.23431162  .00001388  00000-0  10532-3 0  9998,2 52576  53.2172  43.4353 0001026  99.9314 260.1794 15.08829084 68922,6917.914,95.438,540.489,539.069,0.0
52576.0,STARLINK-3932,PAYLOAD,2023-08-07 23:06:39,15.08853136,9.29e-05,53.2167,40.1648,99.2805,260.8292,0.0011544,0.00018139,0.0,0 STARLINK-3932,1 52576U 22051AS  23219.96295390  .00018139  00000-0  11544-2 0  9994,2 52576  53.2167  40.1648 0000929  99.2805 260.8292 15.08853136 69034,6917.84,95.437,540.348,539.063,0.0
52576.0,STARLINK-3932,PAYLOAD,2023-08-08 18:11:16,15.08860352,9.16e-05,53.2165,36.5959,96.724,263.3856,0.00070784,0.00011002,0.0,0 STARLINK-3932,1 52576U 22051AS  23220.75782837  .00011002  00000-0  70784-3 0  9994,2 52576  53.2165  36.5959 0000916  96.7240 263.3856 15.08860352 69152,6917.818,95.436,540.317,539.05,0.0
52576.0,STARLINK-3932,PAYLOAD,2023-08-09 05:18:58,15.08847553,0.000164,53.2169,34.5144,81.6992,278.4186,0.00031247,4.689e-05,0.0,0 STARLINK-3932,1 52576U 22051AS  23221.22151030  .00004689  00000-0  31247-3 0  9996,2 52576  53.2169  34.5144 0001640  81.6992 278.4186 15.08847553 69221,6917.857,95.437,540.857,538.588,0.0
52576.0,STARLINK-3932,PAYLOAD,2023-08-09 18:02:03,15.0884494,9.59e-05,53.2167,32.1356,75.6148,284.4951,0.00031228,4.686e-05,0.0,0 STARLINK-3932,1 52576U 22051AS  23221.75142782  .00004686  00000-0  31228-3 0  9994,2 52576  53.2167  32.1356 0000959  75.6148 284.4951 15.08844940 69309,6917.865,95.437,540.394,539.067,0.0
52576.0,STARLINK-3932,PAYLOAD,2023-08-10 17:52:50,15.08848476,9.78e-05,53.2168,27.6749,72.1366,287.9732,0.00036742,5.566e-05,0.0,0 STARLINK-3932,1 52576U 22051AS  23222.74502627  .00005566  00000-0  36742-3 0  9996,2 52576  53.2168  27.6749 0000978  72.1366 287.9732 15.08848476 69459,6917.854,95.437,540.396,539.043,0.0
